1 08820U 76039A   03284.46008479 -.00000010  00000-0  10000-3 0  9668
2 08820 109.8207 221.3931 0044328 276.5257  83.0243  6.38664543384485
